SL-14 R/B               
1 21423U 91042B   26022.16429733  .00000754  00000+0  92446-4 0  9999
2 21423  82.4919 263.8201 0018012  37.9941 322.2539 14.81782691846184
ERS-1                   
1 21574U 91050A   26022.33298418  .00000663  00000+0  22690-3 0  9990
2 21574  98.7897  39.4027 0031588 341.7115  18.2934 14.39404710809064
ARIANE 40 R/B           
1 21610U 91050F   26022.14737457  .00000731  00000+0  23146-3 0  9994
2 21610  98.2106  76.1088 0002741 193.4763 166.6355 14.42853050812280
INTERCOSMOS 25          
1 21819U 91086A   26022.25643413  .00001404  00000+0  27709-3 0  9991
2 21819  82.6093 338.0691 1486074 216.9927 131.9128 12.11868664491065
SL-8 R/B                
1 21876U 92008B   26022.26566655  .00000131  00000+0  11977-3 0  9998
2 21876  82.9288 302.3085 0033311 264.4727 206.3893 13.75967524703030
SL-8 R/B                
1 21938U 92020B   26022.23448139  .00000201  00000+0  19171-3 0  9996
2 21938  82.9302 188.2455 0030150  68.5869 105.1334 13.75540415694745
USA 81                  
1 21949U 92023A   26021.85382432  .00000392  00000+0  13794-3 0  9997
2 21949  85.0110 158.4438 0002012 115.9562 244.1838 14.32346393 88081
COSMOS 2219             
1 22219U 92076A   26022.25798847 -.00000078  00000+0 -16167-4 0  9993
2 22219  71.0614 115.1362 0020836 271.4676  88.4060 14.14081342711810
SL-16 R/B               
1 22220U 92076B   26022.18147203 -.00000096  00000+0 -24200-4 0  9998
2 22220  71.0005 286.3434 0012520 176.7295 296.7187 14.16850672715249
COSMOS 2221             
1 22236U 92080A   26022.22116150  .00004128  00000+0  36541-3 0  9990
2 22236  82.5069 323.5756 0014502 356.5149   3.5970 14.95974413773843
SL-16 R/B               
1 22285U 92093B   26022.23845171  .00000237  00000+0  14579-3 0  9995
2 22285  71.0222 101.7827 0004214 345.9739  14.1266 14.15442147706581
COSMOS 2228             
1 22286U 92094A   26022.26785654  .00004328  00000+0  37292-3 0  9991
2 22286  82.5182 281.7570 0019606  96.9080 263.4374 14.96958593769114
