CCSDS_OMM_VERS = 2.0
CREATION_DATE  = 
ORIGINATOR     = 

OBJECT_NAME    = SL-14 R/B
OBJECT_ID      = 1991-042B
CENTER_NAME    = EARTH
REF_FRAME      = TEME
TIME_SYSTEM    = UTC
MEAN_ELEMENT_THEORY = SGP/SGP4

EPOCH          = 2026-01-22T03:56:35.289312
MEAN_MOTION    = 14.81782691
ECCENTRICITY   = .00180122
INCLINATION    = 82.4919
RA_OF_ASC_NODE = 263.8201
ARG_OF_PERICENTER = 37.9941
MEAN_ANOMALY   = 322.2539

EPHEMERIS_TYPE = 0
CLASSIFICATION_TYPE = U
NORAD_CAT_ID   = 21423
ELEMENT_SET_NO = 999
REV_AT_EPOCH   = 84618
BSTAR          = .92445752E-4
MEAN_MOTION_DOT = .754E-5
MEAN_MOTION_DDOT = 0

CCSDS_OMM_VERS = 2.0
CREATION_DATE  = 
ORIGINATOR     = 

OBJECT_NAME    = ERS-1
OBJECT_ID      = 1991-050A
CENTER_NAME    = EARTH
REF_FRAME      = TEME
TIME_SYSTEM    = UTC
MEAN_ELEMENT_THEORY = SGP/SGP4

EPOCH          = 2026-01-22T07:59:29.833152
MEAN_MOTION    = 14.39404710
ECCENTRICITY   = .00315889
INCLINATION    = 98.7897
RA_OF_ASC_NODE = 39.4027
ARG_OF_PERICENTER = 341.7115
MEAN_ANOMALY   = 18.2934

EPHEMERIS_TYPE = 0
CLASSIFICATION_TYPE = U
NORAD_CAT_ID   = 21574
ELEMENT_SET_NO = 999
REV_AT_EPOCH   = 80906
BSTAR          = .22690221E-3
MEAN_MOTION_DOT = .663E-5
MEAN_MOTION_DDOT = 0

CCSDS_OMM_VERS = 2.0
CREATION_DATE  = 
ORIGINATOR     = 

OBJECT_NAME    = ARIANE 40 R/B
OBJECT_ID      = 1991-050F
CENTER_NAME    = EARTH
REF_FRAME      = TEME
TIME_SYSTEM    = UTC
MEAN_ELEMENT_THEORY = SGP/SGP4

EPOCH          = 2026-01-22T03:32:13.162848
MEAN_MOTION    = 14.42853050
ECCENTRICITY   = .00027418
INCLINATION    = 98.2106
RA_OF_ASC_NODE = 76.1088
ARG_OF_PERICENTER = 193.4763
MEAN_ANOMALY   = 166.6355

EPHEMERIS_TYPE = 0
CLASSIFICATION_TYPE = U
NORAD_CAT_ID   = 21610
ELEMENT_SET_NO = 999
REV_AT_EPOCH   = 81228
BSTAR          = .23145603E-3
MEAN_MOTION_DOT = .731E-5
MEAN_MOTION_DDOT = 0

CCSDS_OMM_VERS = 2.0
CREATION_DATE  = 
ORIGINATOR     = 

OBJECT_NAME    = INTERCOSMOS 25
OBJECT_ID      = 1991-086A
CENTER_NAME    = EARTH
REF_FRAME      = TEME
TIME_SYSTEM    = UTC
MEAN_ELEMENT_THEORY = SGP/SGP4

EPOCH          = 2026-01-22T06:09:15.908832
MEAN_MOTION    = 12.11868664
ECCENTRICITY   = .14860747
INCLINATION    = 82.6093
RA_OF_ASC_NODE = 338.0691
ARG_OF_PERICENTER = 216.9927
MEAN_ANOMALY   = 131.9128

EPHEMERIS_TYPE = 0
CLASSIFICATION_TYPE = U
NORAD_CAT_ID   = 21819
ELEMENT_SET_NO = 999
REV_AT_EPOCH   = 49106
BSTAR          = .27708873E-3
MEAN_MOTION_DOT = .1404E-4
MEAN_MOTION_DDOT = 0

CCSDS_OMM_VERS = 2.0
CREATION_DATE  = 
ORIGINATOR     = 

OBJECT_NAME    = SL-8 R/B
OBJECT_ID      = 1992-008B
CENTER_NAME    = EARTH
REF_FRAME      = TEME
TIME_SYSTEM    = UTC
MEAN_ELEMENT_THEORY = SGP/SGP4

EPOCH          = 2026-01-22T06:22:33.589920
MEAN_MOTION    = 13.75967524
ECCENTRICITY   = .00333118
INCLINATION    = 82.9288
RA_OF_ASC_NODE = 302.3085
ARG_OF_PERICENTER = 264.4727
MEAN_ANOMALY   = 206.3893

EPHEMERIS_TYPE = 0
CLASSIFICATION_TYPE = U
NORAD_CAT_ID   = 21876
ELEMENT_SET_NO = 999
REV_AT_EPOCH   = 70303
BSTAR          = .11976889E-3
MEAN_MOTION_DOT = .131E-5
MEAN_MOTION_DDOT = 0

CCSDS_OMM_VERS = 2.0
CREATION_DATE  = 
ORIGINATOR     = 

OBJECT_NAME    = SL-8 R/B
OBJECT_ID      = 1992-020B
CENTER_NAME    = EARTH
REF_FRAME      = TEME
TIME_SYSTEM    = UTC
MEAN_ELEMENT_THEORY = SGP/SGP4

EPOCH          = 2026-01-22T05:37:39.192096
MEAN_MOTION    = 13.75540415
ECCENTRICITY   = .00301504
INCLINATION    = 82.9302
RA_OF_ASC_NODE = 188.2455
ARG_OF_PERICENTER = 68.5869
MEAN_ANOMALY   = 105.1334

EPHEMERIS_TYPE = 0
CLASSIFICATION_TYPE = U
NORAD_CAT_ID   = 21938
ELEMENT_SET_NO = 999
REV_AT_EPOCH   = 69474
BSTAR          = .19171286E-3
MEAN_MOTION_DOT = .201E-5
MEAN_MOTION_DDOT = 0

CCSDS_OMM_VERS = 2.0
CREATION_DATE  = 
ORIGINATOR     = 

OBJECT_NAME    = USA 81
OBJECT_ID      = 1992-023A
CENTER_NAME    = EARTH
REF_FRAME      = TEME
TIME_SYSTEM    = UTC
MEAN_ELEMENT_THEORY = SGP/SGP4

EPOCH          = 2026-01-21T20:29:30.421248
MEAN_MOTION    = 14.32346393
ECCENTRICITY   = .00020129
INCLINATION    = 85.0110
RA_OF_ASC_NODE = 158.4438
ARG_OF_PERICENTER = 115.9562
MEAN_ANOMALY   = 244.1838

EPHEMERIS_TYPE = 0
CLASSIFICATION_TYPE = U
NORAD_CAT_ID   = 21949
ELEMENT_SET_NO = 999
REV_AT_EPOCH   = 8808
BSTAR          = .13793819E-3
MEAN_MOTION_DOT = .392E-5
MEAN_MOTION_DDOT = 0

CCSDS_OMM_VERS = 2.0
CREATION_DATE  = 
ORIGINATOR     = 

OBJECT_NAME    = COSMOS 2219
OBJECT_ID      = 1992-076A
CENTER_NAME    = EARTH
REF_FRAME      = TEME
TIME_SYSTEM    = UTC
MEAN_ELEMENT_THEORY = SGP/SGP4

EPOCH          = 2026-01-22T06:11:30.203808
MEAN_MOTION    = 14.14081342
ECCENTRICITY   = .00208366
INCLINATION    = 71.0614
RA_OF_ASC_NODE = 115.1362
ARG_OF_PERICENTER = 271.4676
MEAN_ANOMALY   = 88.4060

EPHEMERIS_TYPE = 0
CLASSIFICATION_TYPE = U
NORAD_CAT_ID   = 22219
ELEMENT_SET_NO = 999
REV_AT_EPOCH   = 71181
BSTAR          = -.16166652E-4
MEAN_MOTION_DOT = -.78E-6
MEAN_MOTION_DDOT = 0

CCSDS_OMM_VERS = 2.0
CREATION_DATE  = 
ORIGINATOR     = 

OBJECT_NAME    = SL-16 R/B
OBJECT_ID      = 1992-076B
CENTER_NAME    = EARTH
REF_FRAME      = TEME
TIME_SYSTEM    = UTC
MEAN_ELEMENT_THEORY = SGP/SGP4

EPOCH          = 2026-01-22T04:21:19.183392
MEAN_MOTION    = 14.16850672
ECCENTRICITY   = .00125201
INCLINATION    = 71.0005
RA_OF_ASC_NODE = 286.3434
ARG_OF_PERICENTER = 176.7295
MEAN_ANOMALY   = 296.7187

EPHEMERIS_TYPE = 0
CLASSIFICATION_TYPE = U
NORAD_CAT_ID   = 22220
ELEMENT_SET_NO = 999
REV_AT_EPOCH   = 71524
BSTAR          = -.24199647E-4
MEAN_MOTION_DOT = -.96E-6
MEAN_MOTION_DDOT = 0

CCSDS_OMM_VERS = 2.0
CREATION_DATE  = 
ORIGINATOR     = 

OBJECT_NAME    = COSMOS 2221
OBJECT_ID      = 1992-080A
CENTER_NAME    = EARTH
REF_FRAME      = TEME
TIME_SYSTEM    = UTC
MEAN_ELEMENT_THEORY = SGP/SGP4

EPOCH          = 2026-01-22T05:18:28.353600
MEAN_MOTION    = 14.95974413
ECCENTRICITY   = .00145022
INCLINATION    = 82.5069
RA_OF_ASC_NODE = 323.5756
ARG_OF_PERICENTER = 356.5149
MEAN_ANOMALY   = 3.5970

EPHEMERIS_TYPE = 0
CLASSIFICATION_TYPE = U
NORAD_CAT_ID   = 22236
ELEMENT_SET_NO = 999
REV_AT_EPOCH   = 77384
BSTAR          = .36540616E-3
MEAN_MOTION_DOT = .4128E-4
MEAN_MOTION_DDOT = 0

CCSDS_OMM_VERS = 2.0
CREATION_DATE  = 
ORIGINATOR     = 

OBJECT_NAME    = SL-16 R/B
OBJECT_ID      = 1992-093B
CENTER_NAME    = EARTH
REF_FRAME      = TEME
TIME_SYSTEM    = UTC
MEAN_ELEMENT_THEORY = SGP/SGP4

EPOCH          = 2026-01-22T05:43:22.227744
MEAN_MOTION    = 14.15442147
ECCENTRICITY   = .00042147
INCLINATION    = 71.0222
RA_OF_ASC_NODE = 101.7827
ARG_OF_PERICENTER = 345.9739
MEAN_ANOMALY   = 14.1266

EPHEMERIS_TYPE = 0
CLASSIFICATION_TYPE = U
NORAD_CAT_ID   = 22285
ELEMENT_SET_NO = 999
REV_AT_EPOCH   = 70658
BSTAR          = .14578899E-3
MEAN_MOTION_DOT = .237E-5
MEAN_MOTION_DDOT = 0

CCSDS_OMM_VERS = 2.0
CREATION_DATE  = 
ORIGINATOR     = 

OBJECT_NAME    = COSMOS 2228
OBJECT_ID      = 1992-094A
CENTER_NAME    = EARTH
REF_FRAME      = TEME
TIME_SYSTEM    = UTC
MEAN_ELEMENT_THEORY = SGP/SGP4

EPOCH          = 2026-01-22T06:25:42.805056
MEAN_MOTION    = 14.96958593
ECCENTRICITY   = .0019606
INCLINATION    = 82.5182
RA_OF_ASC_NODE = 281.7570
ARG_OF_PERICENTER = 96.9080
MEAN_ANOMALY   = 263.4374

EPHEMERIS_TYPE = 0
CLASSIFICATION_TYPE = U
NORAD_CAT_ID   = 22286
ELEMENT_SET_NO = 999
REV_AT_EPOCH   = 76911
BSTAR          = .37292362E-3
MEAN_MOTION_DOT = .4328E-4
MEAN_MOTION_DDOT = 0

